NORAD_CAT_ID,OBJECT_NAME,OBJECT_TYPE,EPOCH,MEAN_MOTION,ECCENTRICITY,INCLINATION,RA_OF_ASC_NODE,ARG_OF_PERICENTER,MEAN_ANOMALY,BSTAR,MEAN_MOTION_DOT,MEAN_MOTION_DDOT,TLE_LINE0,TLE_LINE1,TLE_LINE2,SEMIMAJOR_AXIS,PERIOD,APOGEE,PERIGEE,DECAYED
51867.0,STARLINK-3590,PAYLOAD,2022-08-05 14:00:01,15.08840411,0.0002497,53.2177,139.4109,66.6219,137.7679,0.00044635,6.823e-05,0.0,0 STARLINK-3590,1 51867U 22022R   22217.58335648  .00006823  00000-0  44635-3 0  9995,2 51867  53.2177 139.4109 0002497  66.6219 137.7679 15.08840411  1309,6917.879,95.438,541.472,538.0169999999998,0.0
51867.0,STARLINK-3590,PAYLOAD,2022-08-05 22:00:00,15.08837133,0.0002466,53.2178,137.9155,66.6959,149.1684,-0.0013781,-0.00022153,0.0,0 STARLINK-3590,1 51867U 22022R   22217.91667824 -.00022153  00000-0 -13781-2 0  9999,2 51867  53.2178 137.9155 0002466  66.6959 149.1684 15.08837133  1301,6917.889,95.438,541.46,538.048,0.0
51867.0,STARLINK-3590,PAYLOAD,2022-08-06 00:00:02,15.0883282,0.0002505999999999,53.2176,137.5405,64.7642,244.061,-0.0011750999999999,-0.00018939,0.0,0 STARLINK-3590,1 51867U 22022R   22218.00002315 -.00018939  00000-0 -11751-2 0  9990,2 51867  53.2176 137.5405 0002506  64.7642 244.0610 15.08832820 25089,6917.901999999999,95.438,541.501,538.034,0.0
51867.0,STARLINK-3590,PAYLOAD,2022-08-06 14:00:01,15.08813893,0.0002418,53.2175,134.9221,68.3552,170.6767,0.0020993,0.00033257,0.0,0 STARLINK-3590,1 51867U 22022R   22218.58334491  .00033257  00000-0  20993-2 0  9992,2 51867  53.2175 134.9221 0002418  68.3552 170.6767 15.08813893  1302,6917.96,95.439,541.498,538.1519999999998,0.0
51867.0,STARLINK-3590,PAYLOAD,2022-08-06 22:00:00,15.08851843,0.0002488,53.2175,133.4267,68.9541,181.6527,-0.0014565,-0.00023402,0.0,0 STARLINK-3590,1 51867U 22022R   22218.91667824 -.00023402  00000-0 -14565-2 0  9999,2 51867  53.2175 133.4267 0002488  68.9541 181.6527 15.08851843 25227,6917.844,95.437,541.43,537.988,0.0
51867.0,STARLINK-3590,PAYLOAD,2022-08-07 14:00:01,15.08825749,0.0002459,53.2172,130.4332,71.0763,202.7337,0.0025608,0.00040688,0.0,0 STARLINK-3590,1 51867U 22022R   22219.58334491  .00040688  00000-0  25608-2 0  9997,2 51867  53.2172 130.4332 0002459  71.0763 202.7337 15.08825749  1306,6917.924,95.438,541.49,538.0880000000002,0.0
51867.0,STARLINK-3590,PAYLOAD,2022-08-07 22:00:00,15.08867828,0.0002525,53.2174,128.9379,70.7232,214.6813,-0.0013048,-0.00021011,0.0,0 STARLINK-3590,1 51867U 22022R   22219.91667824 -.00021011  00000-0 -13048-2 0  9999,2 51867  53.2174 128.9379 0002525  70.7232 214.6813 15.08867828  1307,6917.795,95.436,541.4069999999998,537.914,0.0
51867.0,STARLINK-3590,PAYLOAD,2022-08-08 06:00:00,15.08866767,0.0002497,53.2171,127.4424,66.7435,230.2862,-0.00085349,-0.00013857,0.0,0 STARLINK-3590,1 51867U 22022R   22220.25001157 -.00013857  00000-0 -85349-3 0  9992,2 51867  53.2171 127.4424 0002497  66.7435 230.2862 15.08866767 25425,6917.799,95.436,541.391,537.936,0.0
51867.0,STARLINK-3590,PAYLOAD,2022-08-08 14:00:01,15.08830324,0.0002355,53.2173,125.9442,72.1995,236.5307,0.003409,0.00054372,0.0,0 STARLINK-3590,1 51867U 22022R   22220.58335648  .00054372  00000-0  34090-2 0  9994,2 51867  53.2173 125.9442 0002355  72.1995 236.5307 15.08830324  1309,6917.91,95.438,541.404,538.146,0.0
51867.0,STARLINK-3590,PAYLOAD,2022-08-08 22:00:00,15.08880909,0.0002396999999999,53.2169,124.4491,70.2688,250.0001,-0.0037817,-0.00060043,0.0,0 STARLINK-3590,1 51867U 22022R   22220.91667824 -.00060043  00000-0 -37817-2 0  9999,2 51867  53.2169 124.4491 0002397  70.2688 250.0001 15.08880909  1302,6917.755,95.435,541.279,537.962,0.0
51867.0,STARLINK-3590,PAYLOAD,2022-08-09 14:00:01,15.08810762,0.0002189,53.2157,121.4553,70.9578,272.5387,0.00059405,9.171e-05,0.0,0 STARLINK-3590,1 51867U 22022R   22221.58334491  .00009171  00000-0  59405-3 0  9995,2 51867  53.2157 121.4553 0002189  70.9578 272.5387 15.08810762  1305,6917.97,95.439,541.349,538.32,0.0
51867.0,STARLINK-3590,PAYLOAD,2022-08-09 22:00:00,15.08821691,0.0002269,53.2161,119.9602,67.9543,287.0972,-0.0014425,-0.00023162,0.0,0 STARLINK-3590,1 51867U 22022R   22221.91667824 -.00023162  00000-0 -14425-2 0  9991,2 51867  53.2161 119.9602 0002269  67.9543 287.0972 15.08821691  1308,6917.936,95.439,541.371,538.232,0.0
51867.0,STARLINK-3590,PAYLOAD,2022-08-10 14:00:01,15.0880668,0.0002203,53.2164,116.9664,71.1014,307.1099,0.0036273,0.00057863,0.0,0 STARLINK-3590,1 51867U 22022R   22222.58334491  .00057863  00000-0  36273-2 0  9994,2 51867  53.2164 116.9664 0002203  71.1014 307.1099 15.08806680  1309,6917.982,95.44,541.371,538.323,0.0
51867.0,STARLINK-3590,PAYLOAD,2022-08-10 17:07:18,15.08829559,0.0002265,53.2167,116.3827,71.8908,293.2037,0.0016917,0.00026731,0.0,0 STARLINK-3590,1 51867U 22022R   22222.71341435  .00026731  00000-0  16917-2 0  9998,2 51867  53.2167 116.3827 0002265  71.8908 293.2037 15.08829559 25802,6917.9119999999975,95.438,541.344,538.21,0.0
51867.0,STARLINK-3590,PAYLOAD,2022-08-10 22:00:00,15.08852299,0.0002319999999999,53.2166,115.4714,68.3484,321.4369,-0.0014732999999999,-0.00023668,0.0,0 STARLINK-3590,1 51867U 22022R   22222.91667824 -.00023668  00000-0 -14733-2 0  9995,2 51867  53.2166 115.4714 0002320  68.3484 321.4369 15.08852299  1306,6917.843000000003,95.437,541.313,538.1030000000002,0.0
51867.0,STARLINK-3590,PAYLOAD,2022-08-11 06:00:02,15.08848081,0.0002275,53.2165,113.9753,64.9591,336.4858,-0.0021085,-0.00033697,0.0,0 STARLINK-3590,1 51867U 22022R   22223.25002315 -.00033697  00000-0 -21085-2 0  9992,2 51867  53.2165 113.9753 0002275  64.9591 336.4858 15.08848081 25883,6917.856,95.437,541.295,538.1469999999998,0.0
51867.0,STARLINK-3590,PAYLOAD,2022-08-11 14:00:01,15.08802054,0.0002144,53.2167,112.4774,71.5756,341.4063,0.0033653,0.00053623,0.0,0 STARLINK-3590,1 51867U 22022R   22223.58334491  .00053623  00000-0  33653-2 0  9994,2 51867  53.2167 112.4774 0002144  71.5756 341.4063 15.08802054  1309,6917.996,95.44,541.345,538.378,0.0
51867.0,STARLINK-3590,PAYLOAD,2022-08-11 22:00:00,15.08844361,0.0002266999999999,53.2168,110.9825,68.5328,356.0209,-0.0012416999999999,-0.00019999,0.0,0 STARLINK-3590,1 51867U 22022R   22223.91667824 -.00019999  00000-0 -12417-2 0  9995,2 51867  53.2168 110.9825 0002267  68.5328 356.0209 15.08844361 25988,6917.8669999999975,95.437,541.3,538.164,0.0
51867.0,STARLINK-3590,PAYLOAD,2022-08-12 14:00:01,15.08813221,0.0002043,53.2167,107.9882,72.8582,14.9081,0.0028633,0.00045543,0.0,0 STARLINK-3590,1 51867U 22022R   22224.58334491  .00045543  00000-0  28633-2 0  9999,2 51867  53.2167 107.9882 0002043  72.8582  14.9081 15.08813221  1307,6917.962,95.439,541.241,538.414,0.0
51867.0,STARLINK-3590,PAYLOAD,2022-08-12 22:00:01,15.08844715,0.0002142,53.2166,106.4933,69.0018,30.4051,-0.0009614,-0.00015559,0.0,0 STARLINK-3590,1 51867U 22022R   22224.91668981 -.00015559  00000-0 -96140-3 0  9995,2 51867  53.2166 106.4933 0002142  69.0018  30.4051 15.08844715  1301,6917.866,95.437,541.2130000000002,538.249,0.0
51867.0,STARLINK-3590,PAYLOAD,2022-08-13 06:00:02,15.08862,0.0002085,53.2162,104.9968,66.8353,44.1568,-0.0035798,-0.00056847,0.0,0 STARLINK-3590,1 51867U 22022R   22225.25002315 -.00056847  00000-0 -35798-2 0  9992,2 51867  53.2162 104.9968 0002085  66.8353  44.1568 15.08862000 26186,6917.813,95.436,541.121,538.236,0.0
51867.0,STARLINK-3590,PAYLOAD,2022-08-13 14:00:01,15.08798548,0.0001918,53.2163,103.499,74.009,48.5259,0.0027876999999999,0.00044307,0.0,0 STARLINK-3590,1 51867U 22022R   22225.58334491  .00044307  00000-0  27877-2 0  9996,2 51867  53.2163 103.4990 0001918  74.0090  48.5259 15.08798548  1306,6918.007,95.44,541.1990000000002,538.545,0.0
51867.0,STARLINK-3590,PAYLOAD,2022-08-13 22:00:00,15.08829904,0.0002015,53.2161,102.0042,69.8618,64.2385,-0.000907,-0.0001469,0.0,0 STARLINK-3590,1 51867U 22022R   22225.91667824 -.00014690  00000-0 -90700-3 0  9992,2 51867  53.2161 102.0042 0002015  69.8618  64.2385 15.08829904  1300,6917.911,95.438,541.17,538.382,0.0
51867.0,STARLINK-3590,PAYLOAD,2022-08-14 14:00:01,15.08824103,0.0001929,53.2157,99.0097,76.55199999999998,80.7199,0.002576,0.0004093,0.0,0 STARLINK-3590,1 51867U 22022R   22226.58334491  .00040930  00000-0  25760-2 0  9994,2 51867  53.2157  99.0097 0001929  76.5520  80.7199 15.08824103 26387,6917.929,95.439,541.128,538.46,0.0
51867.0,STARLINK-3590,PAYLOAD,2022-08-14 22:00:00,15.08847321,0.0002015,53.2155,97.5148,71.4893,97.3755,-0.00054052,-8.882e-05,0.0,0 STARLINK-3590,1 51867U 22022R   22226.91667824 -.00008882  00000-0 -54052-3 0  9999,2 51867  53.2155  97.5148 0002015  71.4893  97.3755 15.08847321  1303,6917.858,95.437,541.117,538.3290000000002,0.0
51867.0,STARLINK-3590,PAYLOAD,2022-08-15 06:00:00,15.08868696,0.0001934,53.2151,96.0179,70.71600000000002,109.7439,-0.0041696,-0.00066092,0.0,0 STARLINK-3590,1 51867U 22022R   22227.25001157 -.00066092  00000-0 -41696-2 0  9994,2 51867  53.2151  96.0179 0001934  70.7160 109.7439 15.08868696 26486,6917.793000000002,95.436,540.996,538.32,0.0
51867.0,STARLINK-3590,PAYLOAD,2022-08-15 14:00:01,15.08816,0.0001855,53.2152,94.5202,77.5181,114.5464,0.0021311999999999,0.00033771,0.0,0 STARLINK-3590,1 51867U 22022R   22227.58334491  .00033771  00000-0  21312-2 0  9999,2 51867  53.2152  94.5202 0001855  77.5181 114.5464 15.08816000  1305,6917.954000000002,95.439,541.102,538.535,0.0
51867.0,STARLINK-3590,PAYLOAD,2022-08-15 22:00:00,15.08833333,0.0001953,53.2151,93.0254,71.329,132.3193,-0.00014933,-2.664e-05,0.0,0 STARLINK-3590,1 51867U 22022R   22227.91667824 -.00002664  00000-0 -14933-3 0  9996,2 51867  53.2151  93.0254 0001953  71.3290 132.3193 15.08833333  1302,6917.901,95.438,541.117,538.415,0.0
51867.0,STARLINK-3590,PAYLOAD,2022-08-16 00:00:00,15.08820111,0.0001976,53.2153,92.6516,70.1904,226.358,0.0018941,0.00029969,0.0,0 STARLINK-3590,1 51867U 22022R   22228.00001157  .00029969  00000-0  18941-2 0  9995,2 51867  53.2153  92.6516 0001976  70.1904 226.3580 15.08820111 26596,6917.941,95.439,541.173,538.439,0.0
